COSMOS 1933             
1 18958U 88020A   26005.36372021  .00005633  00000+0  28059-3 0  9999
2 18958  82.5155 313.5341 0006135  68.0160 292.1725 15.17365737 40620
SL-3 R/B                
1 19046U 88032B   26005.51258766  .00006718  00000+0  32057-3 0  9995
2 19046  97.5104 349.0748 0028445  93.9432 266.5055 15.19039481 42518
SL-16 R/B               
1 19120U 88039B   26004.99996777  .00000193  00000+0  11400-3 0  9997
2 19120  71.0135 203.2177 0019569  76.2747 284.0555 14.19602534949340
COSMOS 1953             
1 19210U 88050A   25363.34859606  .00008063  00000+0  30114-3 0  9992
2 19210  82.5080 228.9139 0012535  18.6006 341.5688 15.27141359 27045
SL-8 R/B                
1 19257U 88053B   26005.34016275  .00000370  00000+0  12847-3 0  9993
2 19257  74.0461 229.2242 0019075  64.5017 108.8381 14.38876649967485
COSMOS 1975             
1 19573U 88093A   26005.50809788  .00009630  00000+0  36273-3 0  9992
2 19573  82.5191 181.0272 0012484  37.6151 322.5958 15.26878269  9766
SL-14 R/B               
1 19574U 88093B   26005.35035943  .00000821  00000+0  91902-4 0  9994
2 19574  82.5318 101.5115 0019355 245.9768 178.1957 14.85581816991636
SL-16 R/B               
1 19650U 88102B   26005.12136819 -.00000161  00000+0 -57208-4 0  9999
2 19650  71.0003 285.2471 0011907 111.3164 248.9232 14.16141714917892
INTERCOSMOS 24          
1 20261U 89080A   26005.41794796  .00000666  00000+0  18702-3 0  9994
2 20261  82.6070 145.5607 1188935  79.6168 293.6482 12.59478445658839
SL-14 R/B               
1 20262U 89080C   26005.50571760  .00000382  00000+0  11397-3 0  9997
2 20262  82.5912 213.7611 1230089 329.2728  24.1559 12.50433509652256
DELTA 1 R/B             
1 20323U 89089B   26005.50648740  .00000580  00000+0  15247-3 0  9995
2 20323  97.0738 222.9763 0068244 323.3608  36.2933 14.50597208886577
ARIANE 40 R/B           
1 20443U 90005H   26005.15870775  .00000443  00000+0  15473-3 0  9993
2 20443  98.3207  67.6711 0010719  41.3197 318.8800 14.39819401883664
